OBJECT_NAME,OBJECT_ID,EPOCH,MEAN_MOTION,ECCENTRICITY,INCLINATION,RA_OF_ASC_NODE,ARG_OF_PERICENTER,MEAN_ANOMALY,EPHEMERIS_TYPE,CLASSIFICATION_TYPE,NORAD_CAT_ID,ELEMENT_SET_NO,REV_AT_EPOCH,BSTAR,MEAN_MOTION_DOT,MEAN_MOTION_DDOT
STARLINK-31298,2024-044R,2026-07-20T08:16:31.838016,15.27572961,.00010891,43.0003,77.8435,270.4034,89.6693,0,U,59167,999,13385,.44391458E-4,.959E-5,0
STARLINK-31322,2024-044S,2026-07-19T17:11:58.121952,15.27583214,.00009644,43.0036,81.7265,269.3017,90.7724,0,U,59168,999,13378,.46395386E-4,.1015E-4,0
STARLINK-31329,2024-044T,2026-07-20T00:51:39.052224,15.27574835,.00009147,43.0020,79.8268,267.2259,92.8488,0,U,59169,999,13380,-.5194833E-5,-.405E-5,0
STARLINK-31340,2024-044U,2026-07-19T20:09:03.982752,15.27548055,.00009461,42.9982,41.1592,263.8942,96.1802,0,U,59170,999,13423,-.13164754E-3,-.3879E-4,0
STARLINK-31344,2024-044V,2026-07-20T08:47:59.344512,15.27572126,.00010472,43.0037,78.0095,270.1249,89.9483,0,U,59171,999,13388,.63525075E-4,.1486E-4,0
STARLINK-31348,2024-044W,2026-07-19T13:16:47.203104,15.27589789,.0001373,42.9994,35.5105,258.5869,101.4828,0,U,59172,999,13427,.33089E-3,.8857E-4,0
STARLINK-31289,2024-044X,2026-07-20T00:31:18.241824,15.27571442,.00012999,43.0010,79.7181,264.4622,95.6081,0,U,59173,999,13383,.1421492E-3,.3651E-4,0
STARLINK-31283,2024-044Y,2026-07-20T14:00:01.999872,15.27584747,.00015909,43.0029,29.5972,262.4716,51.1076,0,U,59174,999,585,.44387004E-4,.96E-5,0
EXO-0,2023-174DK,2026-07-20T04:29:12.822144,15.35210615,.001011,97.3806,281.3785,60.1014,300.1232,0,U,59175,999,15010,.15232713E-3,.5133E-4,0
STARLINK-31439,2024-045A,2026-07-20T07:41:07.219680,15.27575994,.00014321,43.0033,60.2208,268.8974,91.1714,0,U,59178,999,6981,-.9935207E-5,-.536E-5,0
STARLINK-31410,2024-045B,2026-07-20T07:38:34.812672,15.27573250,.0001208,42.9989,63.6680,265.8096,94.2618,0,U,59179,999,13344,.77975187E-4,.1884E-4,0
STARLINK-31395,2024-045C,2026-07-20T00:19:14.677248,15.27584511,.00012835,43.0057,65.6768,278.5526,81.5180,0,U,59180,999,13339,.48922095E-4,.1084E-4,0
STARLINK-31486,2024-045D,2026-07-19T23:55:53.280480,15.27580654,.00012251,43.0041,62.0953,278.1474,81.9239,0,U,59181,999,13343,.14170325E-4,.128E-5,0
STARLINK-31411,2024-045E,2026-07-20T00:35:40.986816,15.27581020,.00013592,43.0036,64.8999,269.1958,90.8738,0,U,59182,999,13340,.51094924E-4,.1144E-4,0
STARLINK-31382,2024-045G,2026-07-20T08:19:04.833408,15.27576150,.00015292,43.0059,63.0163,268.1649,91.9027,0,U,59184,999,13345,-.48476636E-4,-.1596E-4,0
STARLINK-31394,2024-045H,2026-07-20T07:09:15.827904,15.27539081,.00007904,43.0050,53.1424,256.1376,103.9387,0,U,59185,999,13356,.28645374E-3,.7619E-4,0
STARLINK-31403,2024-045J,2026-07-19T22:43:27.740640,15.27578528,.00008587,43.0040,44.1989,269.3204,90.7550,0,U,59186,999,13357,.38493175E-4,.797E-5,0
STARLINK-31514,2024-045K,2026-07-20T07:33:01.016640,15.27574774,.00032049,43.0009,63.6386,263.2188,96.8299,0,U,59187,999,13344,-.9618218E-5,-.528E-5,0
STARLINK-31478,2024-045L,2026-07-20T07:18:12.492864,15.27558274,.00011379,42.9976,63.5492,281.1824,78.8899,0,U,59188,999,13344,-.84747205E-3,-.23493E-3,0
STARLINK-31498,2024-045M,2026-07-19T22:30:17.013888,15.27577848,.00009736,43.0024,65.9637,262.2022,97.8719,0,U,59189,999,13338,.33889981E-4,.671E-5,0
STARLINK-31563,2024-045N,2026-07-20T00:44:55.902912,15.27586822,.0001569,43.0017,64.9459,226.7479,133.3242,0,U,59190,999,13340,-.79424372E-4,-.2448E-4,0
STARLINK-31551,2024-045P,2026-07-19T22:54:49.745088,15.27580058,.00013384,43.0027,61.7982,263.0913,96.9786,0,U,59191,999,13343,.16885365E-4,.203E-5,0
STARLINK-31536,2024-045Q,2026-07-20T14:00:01.999872,15.27573486,.00014037,42.9995,62.0207,262.5926,172.5624,0,U,59192,999,586,.12381596E-2,.3396E-3,0
STARLINK-31548,2024-045R,2026-07-20T08:04:30.198432,15.27571365,.00014987,43.0063,63.7978,269.0146,91.0534,0,U,59193,999,13344,-.590321E-6,-.278E-5,0
STARLINK-31542,2024-045S,2026-07-20T00:24:34.972416,15.27586212,.00013189,43.0046,64.8413,268.6502,91.4198,0,U,59194,999,13340,-.4812923E-5,-.395E-5,0
STARLINK-31554,2024-045T,2026-07-19T23:53:20.807808,15.27576648,.00012307,43.0009,65.5393,278.5037,81.5675,0,U,59195,999,13339,.50841789E-4,.1137E-4,0
STARLINK-31558,2024-045U,2026-07-20T00:30:07.967520,15.27577122,.0001371,43.0042,64.8689,272.3250,87.7444,0,U,59196,999,13341,.33770833E-4,.667E-5,0
STARLINK-31275,2024-045V,2026-07-19T23:58:53.502240,15.27601935,.00013204,43.0015,65.5674,271.0831,88.9869,0,U,59197,999,13339,.46486912E-3,.1256E-3,0
STARLINK-31590,2024-045W,2026-07-20T08:00:46.976256,15.27575462,.00008322,43.0033,63.7747,268.7495,91.3262,0,U,59198,999,13344,-.3242153E-5,-.351E-5,0
STARLINK-31567,2024-045X,2026-07-19T21:42:10.928160,15.27574525,.00011635,43.0016,65.7114,271.0351,89.0368,0,U,59199,999,13338,-.168799E-6,-.267E-5,0
