STARLINK-31298          
1 59167U 24044R   26201.34481294  .00000959  00000+0  44391-4 0  9995
2 59167  43.0003  77.8435 0001089 270.4034  89.6693 15.27572961133858
STARLINK-31322          
1 59168U 24044S   26200.71664493  .00001015  00000+0  46395-4 0  9990
2 59168  43.0036  81.7265 0000964 269.3017  90.7724 15.27583214133782
STARLINK-31329          
1 59169U 24044T   26201.03586866 -.00000405  00000+0 -51948-5 0  9999
2 59169  43.0020  79.8268 0000914 267.2259  92.8488 15.27574835133809
STARLINK-31340          
1 59170U 24044U   26200.83962943 -.00003879  00000+0 -13165-3 0  9997
2 59170  42.9982  41.1592 0000946 263.8942  96.1802 15.27548055134234
STARLINK-31344          
1 59171U 24044V   26201.36665908  .00001486  00000+0  63525-4 0  9994
2 59171  43.0037  78.0095 0001047 270.1249  89.9483 15.27572126133880
STARLINK-31348          
1 59172U 24044W   26200.55332411  .00008857  00000+0  33089-3 0  9995
2 59172  42.9994  35.5105 0001373 258.5869 101.4828 15.27589789134271
STARLINK-31289          
1 59173U 24044X   26201.02173891  .00003651  00000+0  14215-3 0  9991
2 59173  43.0010  79.7181 0001299 264.4622  95.6081 15.27571442133830
STARLINK-31283          
1 59174U 24044Y   26201.58335648  .00000960  00000+0  44387-4 0  9997
2 59174  43.0029  29.5972 0001590 262.4716  51.1076 15.27584747  5851
EXO-0                   
1 59175U 23174DK  26201.18695396  .00005133  00000+0  15233-3 0  9990
2 59175  97.3806 281.3785 0010110  60.1014 300.1232 15.35210615150108
STARLINK-31439          
1 59178U 24045A   26201.32022245 -.00000536  00000+0 -99352-5 0  9994
2 59178  43.0033  60.2208 0001432 268.8974  91.1714 15.27575994 69818
STARLINK-31410          
1 59179U 24045B   26201.31845848  .00001884  00000+0  77975-4 0  9997
2 59179  42.9989  63.6680 0001208 265.8096  94.2618 15.27573250133442
STARLINK-31395          
1 59180U 24045C   26201.01336432  .00001084  00000+0  48922-4 0  9992
2 59180  43.0057  65.6768 0001283 278.5526  81.5180 15.27584511133392
STARLINK-31486          
1 59181U 24045D   26200.99714445  .00000128  00000+0  14170-4 0  9999
2 59181  43.0041  62.0953 0001225 278.1474  81.9239 15.27580654133435
STARLINK-31411          
1 59182U 24045E   26201.02477994  .00001144  00000+0  51095-4 0  9996
2 59182  43.0036  64.8999 0001359 269.1958  90.8738 15.27581020133403
STARLINK-31382          
1 59184U 24045G   26201.34658372 -.00001596  00000+0 -48477-4 0  9997
2 59184  43.0059  63.0163 0001529 268.1649  91.9027 15.27576150133455
STARLINK-31394          
1 59185U 24045H   26201.29809986  .00007619  00000+0  28645-3 0  9995
2 59185  43.0050  53.1424 0000790 256.1376 103.9387 15.27539081133567
STARLINK-31403          
1 59186U 24045J   26200.94684885  .00000797  00000+0  38493-4 0  9999
2 59186  43.0040  44.1989 0000858 269.3204  90.7550 15.27578528133579
STARLINK-31514          
1 59187U 24045K   26201.31459510 -.00000528  00000+0 -96182-5 0  9991
2 59187  43.0009  63.6386 0003204 263.2188  96.8299 15.27574774133446
STARLINK-31478          
1 59188U 24045L   26201.30431126 -.00023493  00000+0 -84747-3 0  9992
2 59188  42.9976  63.5492 0001137 281.1824  78.8899 15.27558274133447
STARLINK-31498          
1 59189U 24045M   26200.93769692  .00000671  00000+0  33890-4 0  9998
2 59189  43.0024  65.9637 0000973 262.2022  97.8719 15.27577848133381
STARLINK-31563          
1 59190U 24045N   26201.03120258 -.00002448  00000+0 -79424-4 0  9990
2 59190  43.0017  64.9459 0001569 226.7479 133.3242 15.27586822133401
STARLINK-31551          
1 59191U 24045P   26200.95474242  .00000203  00000+0  16885-4 0  9993
2 59191  43.0027  61.7982 0001338 263.0913  96.9786 15.27580058133435
STARLINK-31536          
1 59192U 24045Q   26201.58335648  .00033960  00000+0  12382-2 0  9992
2 59192  42.9995  62.0207 0001403 262.5926 172.5624 15.27573486  5867
STARLINK-31548          
1 59193U 24045R   26201.33646063 -.00000278  00000+0 -59032-6 0  9997
2 59193  43.0063  63.7978 0001498 269.0146  91.0534 15.27571365133444
STARLINK-31542          
1 59194U 24045S   26201.01707144 -.00000395  00000+0 -48129-5 0  9995
2 59194  43.0046  64.8413 0001318 268.6502  91.4198 15.27586212133407
STARLINK-31554          
1 59195U 24045T   26200.99537972  .00001137  00000+0  50842-4 0  9999
2 59195  43.0009  65.5393 0001230 278.5037  81.5675 15.27576648133398
STARLINK-31558          
1 59196U 24045U   26201.02092555  .00000667  00000+0  33771-4 0  9997
2 59196  43.0042  64.8689 0001371 272.3250  87.7444 15.27577122133414
STARLINK-31275          
1 59197U 24045V   26200.99923035  .00012560  00000+0  46487-3 0  9991
2 59197  43.0015  65.5674 0001320 271.0831  88.9869 15.27601935133393
STARLINK-31590          
1 59198U 24045W   26201.33387704 -.00000351  00000+0 -32422-5 0  9991
2 59198  43.0033  63.7747 0000832 268.7495  91.3262 15.27575462133447
STARLINK-31567          
1 59199U 24045X   26200.90429315 -.00000267  00000+0 -16880-6 0  9996
2 59199  43.0016  65.7114 0001163 271.0351  89.0368 15.27574525133388
